[{"OBJECT_NAME":"COSMOS 2538","OBJECT_ID":"2019-039D","EPOCH":"2026-03-09T23:22:28.343424","MEAN_MOTION":15.19536029,"ECCENTRICITY":0.00437345,"INCLINATION":97.5929,"RA_OF_ASC_NODE":147.7512,"ARG_OF_PERICENTER":31.8471,"MEAN_ANOMALY":328.5393,"EPHEMERIS_TYPE":0,"CLASSIFICATION_TYPE":"U","NORAD_CAT_ID":44424,"ELEMENT_SET_NO":999,"REV_AT_EPOCH":36483,"BSTAR":0.00035711669,"MEAN_MOTION_DOT":7.713e-5,"MEAN_MOTION_DDOT":0},{"OBJECT_NAME":"STARLINK-30254","OBJECT_ID":"2023-115N","EPOCH":"2026-03-09T10:50:33.828288","MEAN_MOTION":15.27574266,"ECCENTRICITY":0.00011626,"INCLINATION":42.9999,"RA_OF_ASC_NODE":104.5001,"ARG_OF_PERICENTER":262.3501,"MEAN_ANOMALY":97.7219,"EPHEMERIS_TYPE":0,"CLASSIFICATION_TYPE":"U","NORAD_CAT_ID":57533,"ELEMENT_SET_NO":999,"REV_AT_EPOCH":14532,"BSTAR":-1.2825096e-5,"MEAN_MOTION_DOT":-6.15e-6,"MEAN_MOTION_DDOT":0}]
